CCSDS_OMM_VERS = 2.0
CREATION_DATE  = 
ORIGINATOR     = 

OBJECT_NAME    = SL-3 R/B
OBJECT_ID      = 1988-032B
CENTER_NAME    = EARTH
REF_FRAME      = TEME
TIME_SYSTEM    = UTC
MEAN_ELEMENT_THEORY = SGP/SGP4

EPOCH          = 2026-04-24T03:38:15.109728
MEAN_MOTION    = 15.20369456
ECCENTRICITY   = .0027601
INCLINATION    = 97.5239
RA_OF_ASC_NODE = 97.2760
ARG_OF_PERICENTER = 76.5867
MEAN_ANOMALY   = 283.8442

EPHEMERIS_TYPE = 0
CLASSIFICATION_TYPE = U
NORAD_CAT_ID   = 19046
ELEMENT_SET_NO = 999
REV_AT_EPOCH   = 5901
BSTAR          = .18348E-3
MEAN_MOTION_DOT = .3963E-4
MEAN_MOTION_DDOT = 0

CCSDS_OMM_VERS = 2.0
CREATION_DATE  = 
ORIGINATOR     = 

OBJECT_NAME    = SL-16 R/B
OBJECT_ID      = 1988-039B
CENTER_NAME    = EARTH
REF_FRAME      = TEME
TIME_SYSTEM    = UTC
MEAN_ELEMENT_THEORY = SGP/SGP4

EPOCH          = 2026-04-24T00:08:24.894816
MEAN_MOTION    = 14.19623016
ECCENTRICITY   = .0024083
INCLINATION    = 71.0153
RA_OF_ASC_NODE = 332.7287
ARG_OF_PERICENTER = 270.3096
MEAN_ANOMALY   = 89.5270

EPHEMERIS_TYPE = 0
CLASSIFICATION_TYPE = U
NORAD_CAT_ID   = 19120
ELEMENT_SET_NO = 999
REV_AT_EPOCH   = 96481
BSTAR          = .75726E-4
MEAN_MOTION_DOT = .112E-5
MEAN_MOTION_DDOT = 0

CCSDS_OMM_VERS = 2.0
CREATION_DATE  = 
ORIGINATOR     = 

OBJECT_NAME    = COSMOS 1953
OBJECT_ID      = 1988-050A
CENTER_NAME    = EARTH
REF_FRAME      = TEME
TIME_SYSTEM    = UTC
MEAN_ELEMENT_THEORY = SGP/SGP4

EPOCH          = 2026-04-23T23:34:13.141056
MEAN_MOTION    = 15.29186326
ECCENTRICITY   = .0009654
INCLINATION    = 82.5052
RA_OF_ASC_NODE = 112.6591
ARG_OF_PERICENTER = 333.8035
MEAN_ANOMALY   = 26.2715

EPHEMERIS_TYPE = 0
CLASSIFICATION_TYPE = U
NORAD_CAT_ID   = 19210
ELEMENT_SET_NO = 999
REV_AT_EPOCH   = 4470
BSTAR          = .20474E-3
MEAN_MOTION_DOT = .5837E-4
MEAN_MOTION_DDOT = 0

CCSDS_OMM_VERS = 2.0
CREATION_DATE  = 
ORIGINATOR     = 

OBJECT_NAME    = SL-8 R/B
OBJECT_ID      = 1988-053B
CENTER_NAME    = EARTH
REF_FRAME      = TEME
TIME_SYSTEM    = UTC
MEAN_ELEMENT_THEORY = SGP/SGP4

EPOCH          = 2026-04-24T05:07:13.413216
MEAN_MOTION    = 14.38941010
ECCENTRICITY   = .0020672
INCLINATION    = 74.0495
RA_OF_ASC_NODE = 28.5498
ARG_OF_PERICENTER = 200.6942
MEAN_ANOMALY   = 316.4784

EPHEMERIS_TYPE = 0
CLASSIFICATION_TYPE = U
NORAD_CAT_ID   = 19257
ELEMENT_SET_NO = 999
REV_AT_EPOCH   = 98314
BSTAR          = .57121E-4
MEAN_MOTION_DOT = .15E-5
MEAN_MOTION_DDOT = 0

CCSDS_OMM_VERS = 2.0
CREATION_DATE  = 
ORIGINATOR     = 

OBJECT_NAME    = COSMOS 1975
OBJECT_ID      = 1988-093A
CENTER_NAME    = EARTH
REF_FRAME      = TEME
TIME_SYSTEM    = UTC
MEAN_ELEMENT_THEORY = SGP/SGP4

EPOCH          = 2026-04-23T23:10:05.661984
MEAN_MOTION    = 15.28619955
ECCENTRICITY   = .001198
INCLINATION    = 82.5186
RA_OF_ASC_NODE = 72.2034
ARG_OF_PERICENTER = 21.4175
MEAN_ANOMALY   = 338.7563

EPHEMERIS_TYPE = 0
CLASSIFICATION_TYPE = U
NORAD_CAT_ID   = 19573
ELEMENT_SET_NO = 999
REV_AT_EPOCH   = 2632
BSTAR          = .16764E-3
MEAN_MOTION_DOT = .4708E-4
MEAN_MOTION_DDOT = 0

CCSDS_OMM_VERS = 2.0
CREATION_DATE  = 
ORIGINATOR     = 

OBJECT_NAME    = SL-14 R/B
OBJECT_ID      = 1988-093B
CENTER_NAME    = EARTH
REF_FRAME      = TEME
TIME_SYSTEM    = UTC
MEAN_ELEMENT_THEORY = SGP/SGP4

EPOCH          = 2026-04-24T03:12:40.834080
MEAN_MOTION    = 14.85701878
ECCENTRICITY   = .0019179
INCLINATION    = 82.5334
RA_OF_ASC_NODE = 359.3953
ARG_OF_PERICENTER = 246.1580
MEAN_ANOMALY   = 227.1750

EPHEMERIS_TYPE = 0
CLASSIFICATION_TYPE = U
NORAD_CAT_ID   = 19574
ELEMENT_SET_NO = 999
REV_AT_EPOCH   = 776
BSTAR          = .27167E-4
MEAN_MOTION_DOT = .26E-5
MEAN_MOTION_DDOT = 0

CCSDS_OMM_VERS = 2.0
CREATION_DATE  = 
ORIGINATOR     = 

OBJECT_NAME    = SL-16 R/B
OBJECT_ID      = 1988-102B
CENTER_NAME    = EARTH
REF_FRAME      = TEME
TIME_SYSTEM    = UTC
MEAN_ELEMENT_THEORY = SGP/SGP4

EPOCH          = 2026-04-24T02:40:02.774208
MEAN_MOTION    = 14.16157478
ECCENTRICITY   = .0016248
INCLINATION    = 71.0000
RA_OF_ASC_NODE = 55.9214
ARG_OF_PERICENTER = 297.0972
MEAN_ANOMALY   = 62.8493

EPHEMERIS_TYPE = 0
CLASSIFICATION_TYPE = U
NORAD_CAT_ID   = 19650
ELEMENT_SET_NO = 999
REV_AT_EPOCH   = 93332
BSTAR          = -.59956E-4
MEAN_MOTION_DOT = -.167E-5
MEAN_MOTION_DDOT = 0

CCSDS_OMM_VERS = 2.0
CREATION_DATE  = 
ORIGINATOR     = 

OBJECT_NAME    = INTERCOSMOS 24
OBJECT_ID      = 1989-080A
CENTER_NAME    = EARTH
REF_FRAME      = TEME
TIME_SYSTEM    = UTC
MEAN_ELEMENT_THEORY = SGP/SGP4

EPOCH          = 2026-04-23T22:07:50.074176
MEAN_MOTION    = 12.59600005
ECCENTRICITY   = .1187482
INCLINATION    = 82.6035
RA_OF_ASC_NODE = 74.9447
ARG_OF_PERICENTER = 187.7760
MEAN_ANOMALY   = 170.3379

EPHEMERIS_TYPE = 0
CLASSIFICATION_TYPE = U
NORAD_CAT_ID   = 20261
ELEMENT_SET_NO = 999
REV_AT_EPOCH   = 67249
BSTAR          = .43649E-4
MEAN_MOTION_DOT = .165E-5
MEAN_MOTION_DDOT = 0

CCSDS_OMM_VERS = 2.0
CREATION_DATE  = 
ORIGINATOR     = 

OBJECT_NAME    = SL-14 R/B
OBJECT_ID      = 1989-080C
CENTER_NAME    = EARTH
REF_FRAME      = TEME
TIME_SYSTEM    = UTC
MEAN_ELEMENT_THEORY = SGP/SGP4

EPOCH          = 2026-04-24T03:55:33.202272
MEAN_MOTION    = 12.50528044
ECCENTRICITY   = .1230994
INCLINATION    = 82.5911
RA_OF_ASC_NODE = 144.0042
ARG_OF_PERICENTER = 80.8653
MEAN_ANOMALY   = 292.9328

EPHEMERIS_TYPE = 0
CLASSIFICATION_TYPE = U
NORAD_CAT_ID   = 20262
ELEMENT_SET_NO = 999
REV_AT_EPOCH   = 66583
BSTAR          = .69724E-4
MEAN_MOTION_DOT = .264E-5
MEAN_MOTION_DDOT = 0

CCSDS_OMM_VERS = 2.0
CREATION_DATE  = 
ORIGINATOR     = 

OBJECT_NAME    = DELTA 1 R/B
OBJECT_ID      = 1989-089B
CENTER_NAME    = EARTH
REF_FRAME      = TEME
TIME_SYSTEM    = UTC
MEAN_ELEMENT_THEORY = SGP/SGP4

EPOCH          = 2026-04-24T03:27:26.938656
MEAN_MOTION    = 14.50695933
ECCENTRICITY   = .0068472
INCLINATION    = 97.0667
RA_OF_ASC_NODE = 314.3403
ARG_OF_PERICENTER = 340.1620
MEAN_ANOMALY   = 19.6917

EPHEMERIS_TYPE = 0
CLASSIFICATION_TYPE = U
NORAD_CAT_ID   = 20323
ELEMENT_SET_NO = 999
REV_AT_EPOCH   = 90232
BSTAR          = .5346E-4
MEAN_MOTION_DOT = .18E-5
MEAN_MOTION_DDOT = 0

CCSDS_OMM_VERS = 2.0
CREATION_DATE  = 
ORIGINATOR     = 

OBJECT_NAME    = ARIANE 40 R/B
OBJECT_ID      = 1990-005H
CENTER_NAME    = EARTH
REF_FRAME      = TEME
TIME_SYSTEM    = UTC
MEAN_ELEMENT_THEORY = SGP/SGP4

EPOCH          = 2026-04-24T02:54:35.885088
MEAN_MOTION    = 14.39897843
ECCENTRICITY   = .0011272
INCLINATION    = 98.3000
RA_OF_ASC_NODE = 173.4084
ARG_OF_PERICENTER = 71.6371
MEAN_ANOMALY   = 288.6043

EPHEMERIS_TYPE = 0
CLASSIFICATION_TYPE = U
NORAD_CAT_ID   = 20443
ELEMENT_SET_NO = 999
REV_AT_EPOCH   = 89934
BSTAR          = .6021E-4
MEAN_MOTION_DOT = .147E-5
MEAN_MOTION_DDOT = 0

CCSDS_OMM_VERS = 2.0
CREATION_DATE  = 
ORIGINATOR     = 

OBJECT_NAME    = DELTA 2 R/B(1)
OBJECT_ID      = 1990-008B
CENTER_NAME    = EARTH
REF_FRAME      = TEME
TIME_SYSTEM    = UTC
MEAN_ELEMENT_THEORY = SGP/SGP4

EPOCH          = 2026-04-23T15:35:23.296416
MEAN_MOTION    = 15.61698380
ECCENTRICITY   = .00748516
INCLINATION    = 35.6014
RA_OF_ASC_NODE = 238.4515
ARG_OF_PERICENTER = 320.6588
MEAN_ANOMALY   = 38.8728

EPHEMERIS_TYPE = 0
CLASSIFICATION_TYPE = U
NORAD_CAT_ID   = 20453
ELEMENT_SET_NO = 999
REV_AT_EPOCH   = 93315
BSTAR          = .51406011E-3
MEAN_MOTION_DOT = .53152E-3
MEAN_MOTION_DDOT = 0

