SL-3 R/B                
1 19046U 88032B   26114.15156377  .00003963  00000+0  18348-3 0  9997
2 19046  97.5239  97.2760 0027601  76.5867 283.8442 15.20369456 59010
SL-16 R/B               
1 19120U 88039B   26114.00584369  .00000112  00000+0  75726-4 0  9994
2 19120  71.0153 332.7287 0024083 270.3096  89.5270 14.19623016964810
COSMOS 1953             
1 19210U 88050A   26113.98209654  .00005837  00000+0  20474-3 0  9992
2 19210  82.5052 112.6591 0009654 333.8035  26.2715 15.29186326 44702
SL-8 R/B                
1 19257U 88053B   26114.21334969  .00000150  00000+0  57121-4 0  9994
2 19257  74.0495  28.5498 0020672 200.6942 316.4784 14.38941010983140
COSMOS 1975             
1 19573U 88093A   26113.96534331  .00004708  00000+0  16764-3 0  9995
2 19573  82.5186  72.2034 0011980  21.4175 338.7563 15.28619955 26323
SL-14 R/B               
1 19574U 88093B   26114.13380595  .00000260  00000+0  27167-4 0  9996
2 19574  82.5334 359.3953 0019179 246.1580 227.1750 14.85701878  7766
SL-16 R/B               
1 19650U 88102B   26114.11114322 -.00000167  00000+0 -59956-4 0  9992
2 19650  71.0000  55.9214 0016248 297.0972  62.8493 14.16157478933320
INTERCOSMOS 24          
1 20261U 89080A   26113.92210734  .00000165  00000+0  43649-4 0  9998
2 20261  82.6035  74.9447 1187482 187.7760 170.3379 12.59600005672495
SL-14 R/B               
1 20262U 89080C   26114.16357873  .00000264  00000+0  69724-4 0  9994
2 20262  82.5911 144.0042 1230994  80.8653 292.9328 12.50528044665837
DELTA 1 R/B             
1 20323U 89089B   26114.14406179  .00000180  00000+0  53460-4 0  9990
2 20323  97.0667 314.3403 0068472 340.1620  19.6917 14.50695933902322
ARIANE 40 R/B           
1 20443U 90005H   26114.12124867  .00000147  00000+0  60210-4 0  9996
2 20443  98.3000 173.4084 0011272  71.6371 288.6043 14.39897843899340
DELTA 2 R/B(1)          
1 20453U 90008B   26113.64957519  .00053152  00000+0  51406-3 0  9994
2 20453  35.6014 238.4515 0074851 320.6588  38.8728 15.61698380933154
